ONEWEB-0291             
1 49081U 21075G   26019.55619556  .00000114  00000+0  25994-3 0  9994
2 49081  87.9092  35.3913 0001990 102.7879 257.3475 13.17650343214032
ONEWEB-0293             
1 49082U 21075H   26019.58150780  .00000059  00000+0  11982-3 0  9997
2 49082  87.9084  35.4026 0001704  96.2230 263.9096 13.17651132214063
ONEWEB-0294             
1 49083U 21075J   26019.51552951  .00000380  00000+0  10197-2 0  9990
2 49083  87.8931  20.1738 0001521  98.3968 261.7333 13.12445690215070
ONEWEB-0295             
1 49084U 21075K   26019.58065699  .00000036  00000+0  58792-4 0  9999
2 49084  87.9083  35.4072 0002058  99.9596 260.1768 13.17647194214027
ONEWEB-0296             
1 49085U 21075L   26019.49519171 -.00000421  00000+0 -12050-2 0  9994
2 49085  87.8927  20.1809 0001976  98.4981 261.6372 13.12443840215073
ONEWEB-0297             
1 49086U 21075M   26019.52570448  .00000424  00000+0  11443-2 0  9999
2 49086  87.8920  20.2041 0001858  90.4761 269.6580 13.12443791215684
ONEWEB-0298             
1 49087U 21075N   26019.50907120 -.00001327  00000+0 -34513-2 0  9997
2 49087  87.9085  35.4183 0001988  87.9302 272.2057 13.17653272214049
ONEWEB-0299             
1 49088U 21075P   26019.51063172  .00000031  00000+0  45451-4 0  9993
2 49088  87.9094  35.3833 0001970  94.3850 265.7507 13.17651065214025
